{"type":"FeatureCollection","name":"ne_110m_populated_places","crs":{"type":"name","properties":{"name":"urn:ogc:def:crs:OGC:1.3:CRS84"}},"features":[{"type":"Feature","properties":{"NAME":"Sri Jayawardenepura Kotte","ADM0NAME":"Sri Lanka","POP_MAX":115826,"SCALERANK":4},"bbox":[79.949993,6.900004,79.949993,6.900004],"geometry":{"type":"Point","coordinates":[79.949993,6.900004]}},{"type":"Feature","properties":{"NAME":"Putrajaya","ADM0NAME":"Malaysia","POP_MAX":67964,"SCALERANK":4},"bbox":[101.695037,2.932515,101.695037,2.932515],"geometry":{"type":"Point","coordinates":[101.695037,2.932515]}},{"type":"Feature","properties":{"NAME":"Dushanbe","ADM0NAME":"Tajikistan","POP_MAX":1086244,"SCALERANK":3},"bbox":[68.773879,38.560035,68.773879,38.560035],"geometry":{"type":"Point","coordinates":[68.773879,38.560035]}},{"type":"Feature","properties":{"NAME":"Islamabad","ADM0NAME":"Pakistan","POP_MAX":780000,"SCALERANK":3},"bbox":[73.08063,33.689368,73.08063,33.689368],"geometry":{"type":"Point","coordinates":[73.08063,33.689368]}},{"type":"Feature","properties":{"NAME":"Kathmandu","ADM0NAME":"Nepal","POP_MAX":895000,"SCALERANK":3},"bbox":[85.314696,27.718638,85.314696,27.718638],"geometry":{"type":"Point","coordinates":[85.314696,27.718638]}},{"type":"Feature","properties":{"NAME":"Colombo","ADM0NAME":"Sri Lanka","POP_MAX":217000,"SCALERANK":3},"bbox":[79.857751,6.931966,79.857751,6.931966],"geometry":{"type":"Point","coordinates":[79.857751,6.931966]}},{"type":"Feature","properties":{"NAME":"Thimphu","ADM0NAME":"Bhutan","POP_MAX":98676,"SCALERANK":3},"bbox":[89.639014,27.472986,89.639014,27.472986],"geometry":{"type":"Point","coordinates":[89.639014,27.472986]}},{"type":"Feature","properties":{"NAME":"Naypyidaw","ADM0NAME":"Myanmar","POP_MAX":930000,"SCALERANK":3},"bbox":[96.116673,19.768503,96.116673,19.768503],"geometry":{"type":"Point","coordinates":[96.116673,19.768503]}},{"type":"Feature","properties":{"NAME":"Mal\u00e9","ADM0NAME":"Maldives","POP_MAX":112927,"SCALERANK":3},"bbox":[73.508901,4.172037,73.508901,4.172037],"geometry":{"type":"Point","coordinates":[73.508901,4.172037]}},{"type":"Feature","properties":{"NAME":"Kuala Lumpur","ADM0NAME":"Malaysia","POP_MAX":1448000,"SCALERANK":2},"bbox":[101.688699,3.139797,101.688699,3.139797],"geometry":{"type":"Point","coordinates":[101.688699,3.139797]}},{"type":"Feature","properties":{"NAME":"Dhaka","ADM0NAME":"Bangladesh","POP_MAX":12797394,"SCALERANK":2},"bbox":[90.406634,23.725006,90.406634,23.725006],"geometry":{"type":"Point","coordinates":[90.406634,23.725006]}},{"type":"Feature","properties":{"NAME":"Yangon","ADM0NAME":"Myanmar","POP_MAX":4088000,"SCALERANK":2},"bbox":[96.164732,16.7853,96.164732,16.7853],"geometry":{"type":"Point","coordinates":[96.164732,16.7853]}},{"type":"Feature","properties":{"NAME":"Bangkok","ADM0NAME":"Thailand","POP_MAX":6704000,"SCALERANK":1},"bbox":[100.514699,13.751945,100.514699,13.751945],"geometry":{"type":"Point","coordinates":[100.514699,13.751945]}},{"type":"Feature","properties":{"NAME":"New Delhi","ADM0NAME":"India","POP_MAX":317797,"SCALERANK":1},"bbox":[77.19998,28.600023,77.19998,28.600023],"geometry":{"type":"Point","coordinates":[77.19998,28.600023]}},{"type":"Feature","properties":{"NAME":"Bengaluru","ADM0NAME":"India","POP_MAX":6787000,"SCALERANK":1},"bbox":[77.558064,12.971941,77.558064,12.971941],"geometry":{"type":"Point","coordinates":[77.558064,12.971941]}},{"type":"Feature","properties":{"NAME":"Kabul","ADM0NAME":"Afghanistan","POP_MAX":3277000,"SCALERANK":1},"bbox":[69.181314,34.518636,69.181314,34.518636],"geometry":{"type":"Point","coordinates":[69.181314,34.518636]}},{"type":"Feature","properties":{"NAME":"Mumbai","ADM0NAME":"India","POP_MAX":18978000,"SCALERANK":0},"bbox":[72.875839,19.068408,72.875839,19.068408],"geometry":{"type":"Point","coordinates":[72.875839,19.068408]}},{"type":"Feature","properties":{"NAME":"Kolkata","ADM0NAME":"India","POP_MAX":14787000,"SCALERANK":0},"bbox":[88.369126,22.569579,88.369126,22.569579],"geometry":{"type":"Point","coordinates":[88.369126,22.569579]}}],"bbox":[-175.2205645,-41.2920679923151,179.2166471,64.1434594631703]}